IRIDIUM 159             
1 43578U 18061K   24324.87178834  .00000152  00000+0  47224-4 0  9994
2 43578  86.3927 296.7010 0002159  89.8171 270.3273 14.34217484331065
IRIDIUM 180             
1 43922U 19002A   24324.87129668  .00000644  00000+0  22276-3 0  9999
2 43922  86.3995 233.5556 0002219  83.8278 276.3171 14.34218137306719
IRIDIUM 176             
1 43923U 19002B   24324.22015759  .00002002  00000+0  31345-3 0  9991
2 43923  86.6123 233.8365 0002536  93.0118 267.1390 14.72265371314652
IRIDIUM 168             
1 43924U 19002C   24325.21378493  .00000571  00000+0  19673-3 0  9998
2 43924  86.3998 233.4736 0002178  83.3150 276.8294 14.34219119306702
IRIDIUM 173             
1 43925U 19002D   24324.85225372  .00000516  00000+0  17726-3 0  9991
2 43925  86.3994 233.5370 0002148  82.5814 277.5626 14.34222061306649
IRIDIUM 169             
1 43926U 19002E   24324.79116701  .00000684  00000+0  21714-3 0  9998
2 43926  86.4209 265.1861 0004115  77.1580 283.0078 14.38607572307644
IRIDIUM 172             
1 43927U 19002F   24325.19475744  .00000644  00000+0  22297-3 0  9992
2 43927  86.3996 233.4003 0002149  85.2067 274.9375 14.34220179306691
IRIDIUM 175             
1 43928U 19002G   24324.62254313  .00001717  00000+0  26823-3 0  9998
2 43928  86.1549 198.0833 0002789  57.5165 302.6321 14.72257637314704
